TIANMU-1 08             
1 57400U 23101B   26066.00237819  .00000346  00000+0  14775-4 0  9993
2 57400  97.2717 118.7901 0006380 134.2174 225.9592 15.29204229146020
STARLINK-33644          
1 63414U 25065R   26068.81683483  .00021640  00000+0  79326-3 0  9991
2 63414  43.0030 106.8035 0002477 265.9603  94.0966 15.27593119 52851
